{
  "type": "FeatureCollection",
  "features": [
    {
      "type": "Feature",
      "properties": {
        "norad_id": 44334,
        "name": "EUTELSAT 7C",
        "group": "eutelsat",
        "lat": 0.03326749339697314,
        "lon": -116.55105362849856,
        "alt_km": 35772.18187821976,
        "timestamp": "2025-12-04T10:51:49.777617+00:00",
        "meta_object_name": "EUTELSAT 7C",
        "meta_object_id": "2019-034B",
        "meta_epoch": "2025-12-04T00:46:38.554752",
        "meta_mean_motion": 1.00269518,
        "meta_eccentricity": 0.0003447,
        "meta_inclination": 0.0762,
        "meta_ra_of_asc_node": 180.0814,
        "meta_arg_of_pericenter": 56.4016,
        "meta_mean_anomaly": 215.2751,
        "meta_ephemeris_type": 0,
        "meta_classification_type": "U",
        "meta_norad_cat_id": 44334,
        "meta_element_set_no": 999,
        "meta_rev_at_epoch": 487,
        "meta_bstar": 0,
        "meta_mean_motion_dot": 6.5e-07,
        "meta_mean_motion_ddot": 0,
        "tle_line1": "1 44334U 19034B   25338.03239068  .00000065  00000+0  00000+0 0  9996",
        "tle_line2": "2 44334   0.0762 180.0814 0003447  56.4016 215.2751  1.00269518  4871"
      },
      "geometry": {
        "type": "Point",
        "coordinates": [
          -116.55105362849856,
          0.03326749339697314
        ]
      }
    },
    {
      "type": "Feature",
      "properties": {
        "norad_id": 44624,
        "name": "EUTELSAT 5 WEST B",
        "group": "eutelsat",
        "lat": -0.09537241901054844,
        "lon": -128.53363924684444,
        "alt_km": 35771.230601373434,
        "timestamp": "2025-12-04T10:51:49.777629+00:00",
        "meta_object_name": "EUTELSAT 5 WEST B",
        "meta_object_id": "2019-067A",
        "meta_epoch": "2025-12-03T23:44:38.650272",
        "meta_mean_motion": 1.00272817,
        "meta_eccentricity": 0.000373,
        "meta_inclination": 0.07,
        "meta_ra_of_asc_node": 329.4641,
        "meta_arg_of_pericenter": 284.9373,
        "meta_mean_anomaly": 169.8486,
        "meta_ephemeris_type": 0,
        "meta_classification_type": "U",
        "meta_norad_cat_id": 44624,
        "meta_element_set_no": 999,
        "meta_rev_at_epoch": 2248,
        "meta_bstar": 0,
        "meta_mean_motion_dot": -2.5e-07,
        "meta_mean_motion_ddot": 0,
        "tle_line1": "1 44624U 19067A   25337.98933623 -.00000025  00000+0  00000+0 0  9992",
        "tle_line2": "2 44624   0.0700 329.4641 0003730 284.9373 169.8486  1.00272817 22483"
      },
      "geometry": {
        "type": "Point",
        "coordinates": [
          -128.53363924684444,
          -0.09537241901054844
        ]
      }
    },
    {
      "type": "Feature",
      "properties": {
        "norad_id": 45027,
        "name": "EUTELSAT KONNECT",
        "group": "eutelsat",
        "lat": 0.0049090409864287945,
        "lon": -116.37126742532516,
        "alt_km": 35781.18930884211,
        "timestamp": "2025-12-04T10:51:49.777640+00:00",
        "meta_object_name": "EUTELSAT KONNECT",
        "meta_object_id": "2020-005B",
        "meta_epoch": "2025-12-04T00:03:48.877056",
        "meta_mean_motion": 1.00268785,
        "meta_eccentricity": 0.0001812,
        "meta_inclination": 0.0699,
        "meta_ra_of_asc_node": 99.0395,
        "meta_arg_of_pericenter": 186.7102,
        "meta_mean_anomaly": 155.4717,
        "meta_ephemeris_type": 0,
        "meta_classification_type": "U",
        "meta_norad_cat_id": 45027,
        "meta_element_set_no": 999,
        "meta_rev_at_epoch": 2236,
        "meta_bstar": 0,
        "meta_mean_motion_dot": 6.6e-07,
        "meta_mean_motion_ddot": 0,
        "tle_line1": "1 45027U 20005B   25338.00264904  .00000066  00000+0  00000+0 0  9991",
        "tle_line2": "2 45027   0.0699  99.0395 0001812 186.7102 155.4717  1.00268785 22366"
      },
      "geometry": {
        "type": "Point",
        "coordinates": [
          -116.37126742532516,
          0.0049090409864287945
        ]
      }
    },
    {
      "type": "Feature",
      "properties": {
        "norad_id": 49056,
        "name": "EUTELSAT QUANTUM",
        "group": "eutelsat",
        "lat": -0.032081343339331006,
        "lon": -75.81243520308425,
        "alt_km": 35770.6305820979,
        "timestamp": "2025-12-04T10:51:49.777652+00:00",
        "meta_object_name": "EUTELSAT QUANTUM",
        "meta_object_id": "2021-069B",
        "meta_epoch": "2025-12-04T00:15:17.777952",
        "meta_mean_motion": 1.00271978,
        "meta_eccentricity": 0.0003805,
        "meta_inclination": 0.0193,
        "meta_ra_of_asc_node": 20.2063,
        "meta_arg_of_pericenter": 246.4084,
        "meta_mean_anomaly": 218.0115,
        "meta_ephemeris_type": 0,
        "meta_classification_type": "U",
        "meta_norad_cat_id": 49056,
        "meta_element_set_no": 999,
        "meta_rev_at_epoch": 1597,
        "meta_bstar": 0,
        "meta_mean_motion_dot": 1.42e-06,
        "meta_mean_motion_ddot": 0,
        "tle_line1": "1 49056U 21069B   25338.01062243  .00000142  00000+0  00000+0 0  9996",
        "tle_line2": "2 49056   0.0193  20.2063 0003805 246.4084 218.0115  1.00271978 15971"
      },
      "geometry": {
        "type": "Point",
        "coordinates": [
          -75.81243520308425,
          -0.032081343339331006
        ]
      }
    },
    {
      "type": "Feature",
      "properties": {
        "norad_id": 53765,
        "name": "EUTELSAT KONNECT VHTS",
        "group": "eutelsat",
        "lat": 0.006728671353354658,
        "lon": -120.8521104096193,
        "alt_km": 35775.21806935428,
        "timestamp": "2025-12-04T10:51:49.777664+00:00",
        "meta_object_name": "EUTELSAT KONNECT VHTS",
        "meta_object_id": "2022-110A",
        "meta_epoch": "2025-12-03T05:12:28.480320",
        "meta_mean_motion": 1.00269007,
        "meta_eccentricity": 0.0002764,
        "meta_inclination": 0.0603,
        "meta_ra_of_asc_node": 107.1016,
        "meta_arg_of_pericenter": 123.1613,
        "meta_mean_anomaly": 282.8564,
        "meta_ephemeris_type": 0,
        "meta_classification_type": "U",
        "meta_norad_cat_id": 53765,
        "meta_element_set_no": 999,
        "meta_rev_at_epoch": 486,
        "meta_bstar": 0,
        "meta_mean_motion_dot": 3.6e-07,
        "meta_mean_motion_ddot": 0,
        "tle_line1": "1 53765U 22110A   25337.21699630  .00000036  00000+0  00000+0 0  9995",
        "tle_line2": "2 53765   0.0603 107.1016 0002764 123.1613 282.8564  1.00269007  4867"
      },
      "geometry": {
        "type": "Point",
        "coordinates": [
          -120.8521104096193,
          0.006728671353354658
        ]
      }
    },
    {
      "type": "Feature",
      "properties": {
        "norad_id": 54048,
        "name": "EUTELSAT HOTBIRD 13F",
        "group": "eutelsat",
        "lat": -0.05675203744649695,
        "lon": -110.56173623388432,
        "alt_km": 35788.63878790204,
        "timestamp": "2025-12-04T10:51:49.777675+00:00",
        "meta_object_name": "EUTELSAT HOTBIRD 13F",
        "meta_object_id": "2022-134A",
        "meta_epoch": "2025-12-04T01:48:08.882784",
        "meta_mean_motion": 1.00270626,
        "meta_eccentricity": 0.0002113,
        "meta_inclination": 0.0523,
        "meta_ra_of_asc_node": 291.1034,
        "meta_arg_of_pericenter": 62.9296,
        "meta_mean_anomaly": 119.1592,
        "meta_ephemeris_type": 0,
        "meta_classification_type": "U",
        "meta_norad_cat_id": 54048,
        "meta_element_set_no": 999,
        "meta_rev_at_epoch": 1142,
        "meta_bstar": 0,
        "meta_mean_motion_dot": 1.03e-06,
        "meta_mean_motion_ddot": 0,
        "tle_line1": "1 54048U 22134A   25338.07510281  .00000103  00000+0  00000+0 0  9990",
        "tle_line2": "2 54048   0.0523 291.1034 0002113  62.9296 119.1592  1.00270626 11424"
      },
      "geometry": {
        "type": "Point",
        "coordinates": [
          -110.56173623388432,
          -0.05675203744649695
        ]
      }
    },
    {
      "type": "Feature",
      "properties": {
        "norad_id": 54225,
        "name": "EUTELSAT HOTBIRD 13G",
        "group": "eutelsat",
        "lat": -0.01346263200452046,
        "lon": -110.51743052567842,
        "alt_km": 35782.20889789472,
        "timestamp": "2025-12-04T10:51:49.777687+00:00",
        "meta_object_name": "EUTELSAT HOTBIRD 13G",
        "meta_object_id": "2022-146A",
        "meta_epoch": "2025-12-04T01:48:08.882784",
        "meta_mean_motion": 1.00271083,
        "meta_eccentricity": 0.0002144,
        "meta_inclination": 0.0481,
        "meta_ra_of_asc_node": 238.3515,
        "meta_arg_of_pericenter": 307.4733,
        "meta_mean_anomaly": 287.3658,
        "meta_ephemeris_type": 0,
        "meta_classification_type": "U",
        "meta_norad_cat_id": 54225,
        "meta_element_set_no": 999,
        "meta_rev_at_epoch": 551,
        "meta_bstar": 0,
        "meta_mean_motion_dot": 1.04e-06,
        "meta_mean_motion_ddot": 0,
        "tle_line1": "1 54225U 22146A   25338.07510281  .00000104  00000+0  00000+0 0  9991",
        "tle_line2": "2 54225   0.0481 238.3515 0002144 307.4733 287.3658  1.00271083  5510"
      },
      "geometry": {
        "type": "Point",
        "coordinates": [
          -110.51743052567842,
          -0.01346263200452046
        ]
      }
    }
  ]
}